COMMENT,ORIGINATOR,NORAD_CAT_ID,OBJECT_NAME,OBJECT_TYPE,CLASSIFICATION_TYPE,INTLDES,EPOCH,EPOCH_MICROSECONDS,MEAN_MOTION,ECCENTRICITY,INCLINATION,RA_OF_ASC_NODE,ARG_OF_PERICENTER,MEAN_ANOMALY,EPHEMERIS_TYPE,ELEMENT_SET_NO,REV_AT_EPOCH,BSTAR,MEAN_MOTION_DOT,MEAN_MOTION_DDOT,FILE,TLE_LINE0,TLE_LINE1,TLE_LINE2,OBJECT_ID,OBJECT_NUMBER,SEMIMAJOR_AXIS,PERIOD,APOGEE,PERIGEE,DECAYED,date
GENERATED VIA SPACETRACK.ORG API,18 SPCS,46301,SPACEBEE-20,PAYLOAD,U,20061AF,2023/4/7 4:40,349024,15.49406223,0.0004556,97.412,173.5967,229.5571,130.5283,0,999,14337,0.0030076,0.00168345,0,3882626,0 SPACEBEE-20,1 46301U 20061AF  23097.19474941  .00168345  00000-0  30076-2 0  9998,2 46301  97.4120 173.5967 0004556 229.5571 130.5283 15.49406223143374,2020-061AF,46301,6796.599,92.939,421.56,415.367,1,
GENERATED VIA SPACETRACK.ORG API,18 SPCS,46301,SPACEBEE-20,PAYLOAD,U,20061AF,2023/4/7 15:31,607776,15.49544783,0.0004582,97.4118,174.0618,229.97,130.1149,0,999,14344,0.0029652,0.00166744,0,3882749,0 SPACEBEE-20,1 46301U 20061AF  23097.64681259  .00166744  00000-0  29652-2 0  9999,2 46301  97.4118 174.0618 0004582 229.9700 130.1149 15.49544783143446,2020-061AF,46301,6796.194,92.931,421.173,414.945,1,
GENERATED VIA SPACETRACK.ORG API,18 SPCS,46301,SPACEBEE-20,PAYLOAD,U,20061AF,2023/4/8 3:55,281856,15.49698396,0.0004643,97.4117,174.592,228.9588,131.1262,0,999,14352,0.0026415,0.00148998,0,3883067,0 SPACEBEE-20,1 46301U 20061AF  23098.16340604  .00148998  00000-0  26415-2 0  9998,2 46301  97.4117 174.5920 0004643 228.9588 131.1262 15.49698396143523,2020-061AF,46301,6795.745,92.921,420.765,414.454,1,
GENERATED VIA SPACETRACK.ORG API,18 SPCS,46301,SPACEBEE-20,PAYLOAD,U,20061AF,2023/4/8 3:55,281856,15.49698396,0.0004643,97.4117,174.592,228.9588,131.1262,0,999,14352,0.0026415,0.00148998,0,3883527,0 SPACEBEE-20,1 46301U 20061AF  23098.16340604  .00148998  00000-0  26415-2 0  9998,2 46301  97.4117 174.5920 0004643 228.9588 131.1262 15.49698396143523,2020-061AF,46301,6795.745,92.921,420.765,414.454,1,
GENERATED VIA SPACETRACK.ORG API,18 SPCS,46301,SPACEBEE-20,PAYLOAD,U,20061AF,2023/4/9 3:09,923968,15.50007569,0.0004668,97.4116,175.5883,227.553,132.5327,0,999,14367,0.0027764,0.00158512,0,3883954,0 SPACEBEE-20,1 46301U 20061AF  23099.13187412  .00158512  00000-0  27764-2 0  9993,2 46301  97.4116 175.5883 0004668 227.5530 132.5327 15.50007569143671,2020-061AF,46301,6794.841,92.903,419.878,413.534,1,
GENERATED VIA SPACETRACK.ORG API,18 SPCS,46301,SPACEBEE-20,PAYLOAD,U,20061AF,2023/4/9 4:42,685920,15.50030682,0.0004669,97.4118,175.6547,227.6243,132.4613,0,999,14368,0.0027763,0.00158638,0,3884332,0 SPACEBEE-20,1 46301U 20061AF  23099.19643155  .00158638  00000-0  27763-2 0  9998,2 46301  97.4118 175.6547 0004669 227.6243 132.4613 15.50030682143684,2020-061AF,46301,6794.773,92.901,419.811,413.466,1,
GENERATED VIA SPACETRACK.ORG API,18 SPCS,46301,SPACEBEE-20,PAYLOAD,U,20061AF,2023/4/9 17:06,503168,15.50183321,0.0004662,97.4114,176.1862,228.5161,131.5691,0,999,14376,0.0026626,0.00152844,0,3884641,0 SPACEBEE-20,1 46301U 20061AF  23099.71286462  .00152844  00000-0  26626-2 0  9990,2 46301  97.4114 176.1862 0004662 228.5161 131.5691 15.50183321143762,2020-061AF,46301,6794.327,92.892,419.36,413.025,1,
GENERATED VIA SPACETRACK.ORG API,18 SPCS,46301,SPACEBEE-20,PAYLOAD,U,20061AF,2023/4/10 3:57,5696,15.50330579,0.0004752,97.4115,176.6506,227.7122,132.3727,0,999,14383,0.0028515,0.00164796,0,3884841,0 SPACEBEE-20,1 46301U 20061AF  23100.16469914  .00164796  00000-0  28515-2 0  9995,2 46301  97.4115 176.6506 0004752 227.7122 132.3727 15.50330579143837,2020-061AF,46301,6793.897,92.883,418.991,412.534,1,
GENERATED VIA SPACETRACK.ORG API,18 SPCS,46301,SPACEBEE-20,PAYLOAD,U,20061AF,2023/4/10 3:57,5696,15.50330579,0.0004752,97.4115,176.6506,227.7122,132.3727,0,999,14383,0.0028515,0.00164796,0,3885195,0 SPACEBEE-20,1 46301U 20061AF  23100.16469914  .00164796  00000-0  28515-2 0  9995,2 46301  97.4115 176.6506 0004752 227.7122 132.3727 15.50330579143837,2020-061AF,46301,6793.897,92.883,418.991,412.534,1,
GENERATED VIA SPACETRACK.ORG API,18 SPCS,46301,SPACEBEE-20,PAYLOAD,U,20061AF,2023/4/11 4:44,447328,15.50707165,0.0004795,97.4118,177.7138,226.8564,133.2287,0,999,14399,0.002547,0.00148857,0,3885491,0 SPACEBEE-20,1 46301U 20061AF  23101.19728527  .00148857  00000-0  25470-2 0  9994,2 46301  97.4118 177.7138 0004795 226.8564 133.2287 15.50707165143997,2020-061AF,46301,6792.797,92.861,417.919,411.405,1,
GENERATED VIA SPACETRACK.ORG API,18 SPCS,46301,SPACEBEE-20,PAYLOAD,U,20061AF,2023/4/11 4:44,447328,15.50707165,0.0004795,97.4118,177.7138,226.8564,133.2287,0,999,14399,0.002547,0.00148857,0,3885783,0 SPACEBEE-20,1 46301U 20061AF  23101.19728527  .00148857  00000-0  25470-2 0  9994,2 46301  97.4118 177.7138 0004795 226.8564 133.2287 15.50707165143997,2020-061AF,46301,6792.797,92.861,417.919,411.405,1,
GENERATED VIA SPACETRACK.ORG API,18 SPCS,46301,SPACEBEE-20,PAYLOAD,U,20061AF,2023/4/12 3:57,794304,15.51042797,0.0004854,97.4115,178.7103,227.2061,132.8783,0,999,14414,0.0026263,0.00155458,0,3886349,0 SPACEBEE-20,1 46301U 20061AF  23102.16511336  .00155458  00000-0  26263-2 0  9996,2 46301  97.4115 178.7103 0004854 227.2061 132.8783 15.51042797144148,2020-061AF,46301,6791.817,92.841,416.979,410.385,1,
GENERATED VIA SPACETRACK.ORG API,18 SPCS,46301,SPACEBEE-20,PAYLOAD,U,20061AF,2023/4/13 4:44,353696,15.5140228,0.0004845,97.412,179.7743,226.7122,133.3726,0,999,14430,0.0029138,0.00175133,0,3886564,0 SPACEBEE-20,1 46301U 20061AF  23103.19723789  .00175133  00000-0  29138-2 0  9993,2 46301  97.4120 179.7743 0004845 226.7122 133.3726 15.51402280144305,2020-061AF,46301,6790.768,92.819,415.923,409.343,1,
GENERATED VIA SPACETRACK.ORG API,18 SPCS,46301,SPACEBEE-20,PAYLOAD,U,20061AF,2023/4/14 11:41,629760,15.51859376,0.0004892,97.4111,181.1027,229.3341,130.7486,0,999,14450,0.0030288,0.0018527,0,3887333,0 SPACEBEE-20,1 46301U 20061AF  23104.48705590  .00185270  00000-0  30288-2 0  9997,2 46301  97.4111 181.1027 0004892 229.3341 130.7486 15.51859376144509,2020-061AF,46301,6789.434,92.792,414.621,407.978,1,
GENERATED VIA SPACETRACK.ORG API,18 SPCS,46301,SPACEBEE-20,PAYLOAD,U,20061AF,2023/4/14 22:31,275296,15.52058828,0.000487,97.4113,181.5683,228.9468,131.1364,0,999,14457,0.0035769,0.0022138,0,3887500,0 SPACEBEE-20,1 46301U 20061AF  23104.93839439  .00221380  00000-0  35769-2 0  9999,2 46301  97.4113 181.5683 0004870 228.9468 131.1364 15.52058828144575,2020-061AF,46301,6788.853,92.78,414.024,407.412,1,
GENERATED VIA SPACETRACK.ORG API,18 SPCS,46301,SPACEBEE-20,PAYLOAD,U,20061AF,2023/4/15 12:26,995936,15.52317849,0.0004953,97.4114,182.1669,229.8008,130.2812,0,999,14466,0.0035751,0.00223382,0,3887974,0 SPACEBEE-20,1 46301U 20061AF  23105.51859949  .00223382  00000-0  35751-2 0  9997,2 46301  97.4114 182.1669 0004953 229.8008 130.2812 15.52317849144668,2020-061AF,46301,6788.098,92.765,413.325,406.6,1,
GENERATED VIA SPACETRACK.ORG API,18 SPCS,46301,SPACEBEE-20,PAYLOAD,U,20061AF,2023/4/15 20:10,192352,15.52473671,0.0004994,97.4113,182.4996,230.1266,129.9548,0,999,14471,0.0038265,0.00240968,0,3888088,0 SPACEBEE-20,1 46301U 20061AF  23105.84089343  .00240968  00000-0  38265-2 0  9998,2 46301  97.4113 182.4996 0004994 230.1266 129.9548 15.52473671144712,2020-061AF,46301,6787.643,92.755,412.898,406.119,1,
GENERATED VIA SPACETRACK.ORG API,18 SPCS,46301,SPACEBEE-20,PAYLOAD,U,20061AF,2023/4/15 20:10,192352,15.52473671,0.0004994,97.4113,182.4996,230.1266,129.9548,0,999,14471,0.0038265,0.00240968,0,3888171,0 SPACEBEE-20,1 46301U 20061AF  23105.84089343  .00240968  00000-0  38265-2 0  9998,2 46301  97.4113 182.4996 0004994 230.1266 129.9548 15.52473671144712,2020-061AF,46301,6787.643,92.755,412.898,406.119,1,
GENERATED VIA SPACETRACK.ORG API,18 SPCS,46301,SPACEBEE-20,PAYLOAD,U,20061AF,2023/4/16 13:11,325824,15.52803266,0.0004934,97.4112,183.2313,230.9649,129.1165,0,999,14482,0.0037899,0.00241509,0,3888626,0 SPACEBEE-20,1 46301U 20061AF  23106.54983016  .00241509  00000-0  37899-2 0  9990,2 46301  97.4112 183.2313 0004934 230.9649 129.1165 15.52803266144826,2020-061AF,46301,6786.683,92.736,411.896,405.199,1,
GENERATED VIA SPACETRACK.ORG API,18 SPCS,46301,SPACEBEE-20,PAYLOAD,U,20061AF,2023/4/16 20:55,878784,15.52954636,0.000493,97.4113,183.5639,230.7961,129.2855,0,999,14487,0.0036824,0.00235762,0,3888799,0 SPACEBEE-20,1 46301U 20061AF  23106.87202406  .00235762  00000-0  36824-2 0  9994,2 46301  97.4113 183.5639 0004930 230.7961 129.2855 15.52954636144872,2020-061AF,46301,6786.242,92.726,411.452,404.761,1,
GENERATED VIA SPACETRACK.ORG API,18 SPCS,46301,SPACEBEE-20,PAYLOAD,U,20061AF,2023/4/17 13:56,65600,15.53279017,0.0005009,97.4113,184.2959,232.2487,127.8313,0,999,14498,0.0036235,0.00234679,0,3889215,0 SPACEBEE-20,1 46301U 20061AF  23107.58074150  .00234679  00000-0  36235-2 0  9998,2 46301  97.4113 184.2959 0005009 232.2487 127.8313 15.53279017144982,2020-061AF,46301,6785.297,92.707,410.561,403.763,1,
GENERATED VIA SPACETRACK.ORG API,18 SPCS,46301,SPACEBEE-20,PAYLOAD,U,20061AF,2023/4/17 20:07,503552,15.53401265,0.000506,97.4112,184.5622,232.1873,127.8922,0,999,14502,0.0037229,0.0024242,0,3889391,0 SPACEBEE-20,1 46301U 20061AF  23107.83842018  .00242420  00000-0  37229-2 0  9999,2 46301  97.4112 184.5622 0005060 232.1873 127.8922 15.53401265145020,2020-061AF,46301,6784.941,92.7,410.239,403.373,1,
GENERATED VIA SPACETRACK.ORG API,18 SPCS,46301,SPACEBEE-20,PAYLOAD,U,20061AF,2023/4/18 8:29,424416,15.5362326,0.0005022,97.411,185.0948,232.1962,127.8837,0,999,14510,0.0031984,0.00209046,0,3889684,0 SPACEBEE-20,1 46301U 20061AF  23108.35372019  .00209046  00000-0  31984-2 0  9995,2 46301  97.4110 185.0948 0005022 232.1962 127.8837 15.53623260145107,2020-061AF,46301,6784.295,92.687,409.567,402.753,1,
